{"fetched_at":"2026-07-06T18:35:39.768Z","source":"https://celestrak.org/NORAD/elements/gp.php?NAME=JILIN&FORMAT=JSON","constellation":"jilin-1-gaofen","records":[{"OBJECT_NAME":"JILIN-1 GAOFEN 03D49","OBJECT_ID":"2022-167N","EPOCH":"2026-07-06T06:27:47.690208","CLASSIFICATION_TYPE":"U","MEAN_MOTION":15.37889133,"ECCENTRICITY":0.00065559,"INCLINATION":97.6827,"RA_OF_ASC_NODE":358.2543,"ARG_OF_PERICENTER":75.5637,"MEAN_ANOMALY":284.6334,"EPHEMERIS_TYPE":0,"NORAD_CAT_ID":54694,"ELEMENT_SET_NO":999,"REV_AT_EPOCH":19842,"BSTAR":0.00030784745,"MEAN_MOTION_DOT":0.0001139,"MEAN_MOTION_DDOT":0},{"OBJECT_NAME":"JILIN-1 GAOFEN 03D48","OBJECT_ID":"2022-167P","EPOCH":"2026-07-06T07:03:59.753376","CLASSIFICATION_TYPE":"U","MEAN_MOTION":15.3565705,"ECCENTRICITY":0.00071241,"INCLINATION":97.6899,"RA_OF_ASC_NODE":357.6295,"ARG_OF_PERICENTER":58.0457,"MEAN_ANOMALY":302.1477,"EPHEMERIS_TYPE":0,"NORAD_CAT_ID":54695,"ELEMENT_SET_NO":999,"REV_AT_EPOCH":19832,"BSTAR":0.00030207384,"MEAN_MOTION_DOT":0.00010398,"MEAN_MOTION_DDOT":0},{"OBJECT_NAME":"JILIN GAOFEN OBJECT A","OBJECT_ID":"2026-080A","EPOCH":"2026-07-04T01:28:04.639584","CLASSIFICATION_TYPE":"U","MEAN_MOTION":15.09112385,"ECCENTRICITY":0.0012282,"INCLINATION":97.6614,"RA_OF_ASC_NODE":260.5556,"ARG_OF_PERICENTER":15.1953,"MEAN_ANOMALY":344.9642,"EPHEMERIS_TYPE":0,"NORAD_CAT_ID":68691,"ELEMENT_SET_NO":999,"REV_AT_EPOCH":1220,"BSTAR":0.00039809,"MEAN_MOTION_DOT":0.0000626,"MEAN_MOTION_DDOT":0},{"OBJECT_NAME":"JILIN GAOFEN OBJECT B","OBJECT_ID":"2026-080B","EPOCH":"2026-07-06T03:56:41.180064","CLASSIFICATION_TYPE":"U","MEAN_MOTION":15.0904802,"ECCENTRICITY":0.00156028,"INCLINATION":97.6584,"RA_OF_ASC_NODE":262.6735,"ARG_OF_PERICENTER":345.4,"MEAN_ANOMALY":14.6775,"EPHEMERIS_TYPE":0,"NORAD_CAT_ID":68692,"ELEMENT_SET_NO":999,"REV_AT_EPOCH":1252,"BSTAR":0.00039730314,"MEAN_MOTION_DOT":0.00006243,"MEAN_MOTION_DDOT":0},{"OBJECT_NAME":"JILIN GAOFEN OBJECT C","OBJECT_ID":"2026-080C","EPOCH":"2026-07-06T01:10:27.724800","CLASSIFICATION_TYPE":"U","MEAN_MOTION":15.09122433,"ECCENTRICITY":0.00127579,"INCLINATION":97.6584,"RA_OF_ASC_NODE":262.5264,"ARG_OF_PERICENTER":348.4848,"MEAN_ANOMALY":11.6086,"EPHEMERIS_TYPE":0,"NORAD_CAT_ID":68693,"ELEMENT_SET_NO":999,"REV_AT_EPOCH":1250,"BSTAR":0.00030808993,"MEAN_MOTION_DOT":0.00004831,"MEAN_MOTION_DDOT":0},{"OBJECT_NAME":"JILIN GAOFEN OBJECT D","OBJECT_ID":"2026-080D","EPOCH":"2026-07-06T07:07:39.750240","CLASSIFICATION_TYPE":"U","MEAN_MOTION":15.08904814,"ECCENTRICITY":0.00172721,"INCLINATION":97.6649,"RA_OF_ASC_NODE":262.8741,"ARG_OF_PERICENTER":356.689,"MEAN_ANOMALY":3.4221,"EPHEMERIS_TYPE":0,"NORAD_CAT_ID":68694,"ELEMENT_SET_NO":999,"REV_AT_EPOCH":1252,"BSTAR":0.00034382041,"MEAN_MOTION_DOT":0.00005375,"MEAN_MOTION_DDOT":0},{"OBJECT_NAME":"JILIN GAOFEN OBJECT E","OBJECT_ID":"2026-080E","EPOCH":"2026-07-06T06:43:43.261248","CLASSIFICATION_TYPE":"U","MEAN_MOTION":15.09200171,"ECCENTRICITY":0.00132762,"INCLINATION":97.6634,"RA_OF_ASC_NODE":262.8763,"ARG_OF_PERICENTER":8.9424,"MEAN_ANOMALY":351.2038,"EPHEMERIS_TYPE":0,"NORAD_CAT_ID":68695,"ELEMENT_SET_NO":999,"REV_AT_EPOCH":1250,"BSTAR":0.00032849785,"MEAN_MOTION_DOT":0.00005167,"MEAN_MOTION_DDOT":0},{"OBJECT_NAME":"JILIN GAOFEN OBJECT F","OBJECT_ID":"2026-080F","EPOCH":"2026-07-06T06:42:00.389952","CLASSIFICATION_TYPE":"U","MEAN_MOTION":15.09164468,"ECCENTRICITY":0.00143839,"INCLINATION":97.6606,"RA_OF_ASC_NODE":262.8474,"ARG_OF_PERICENTER":14.5194,"MEAN_ANOMALY":345.6445,"EPHEMERIS_TYPE":0,"NORAD_CAT_ID":68696,"ELEMENT_SET_NO":999,"REV_AT_EPOCH":1250,"BSTAR":0.00033041956,"MEAN_MOTION_DOT":0.00005195,"MEAN_MOTION_DDOT":0},{"OBJECT_NAME":"JILIN GAOFEN OBJECT G","OBJECT_ID":"2026-080G","EPOCH":"2026-07-06T06:21:52.515360","CLASSIFICATION_TYPE":"U","MEAN_MOTION":15.0914882,"ECCENTRICITY":0.00142546,"INCLINATION":97.6651,"RA_OF_ASC_NODE":262.9127,"ARG_OF_PERICENTER":8.4205,"MEAN_ANOMALY":351.726,"EPHEMERIS_TYPE":0,"NORAD_CAT_ID":68697,"ELEMENT_SET_NO":999,"REV_AT_EPOCH":1250,"BSTAR":0.00030665561,"MEAN_MOTION_DOT":0.00004814,"MEAN_MOTION_DDOT":0},{"OBJECT_NAME":"JILIN GAOFEN OBJECT H","OBJECT_ID":"2026-080H","EPOCH":"2026-07-01T19:40:54.106752","CLASSIFICATION_TYPE":"U","MEAN_MOTION":15.09020248,"ECCENTRICITY":0.00154058,"INCLINATION":97.6647,"RA_OF_ASC_NODE":258.4665,"ARG_OF_PERICENTER":23.9908,"MEAN_ANOMALY":336.2035,"EPHEMERIS_TYPE":0,"NORAD_CAT_ID":68698,"ELEMENT_SET_NO":999,"REV_AT_EPOCH":1183,"BSTAR":0.00048995825,"MEAN_MOTION_DOT":0.00007709,"MEAN_MOTION_DDOT":0}]}
